OBJECT_NAME,OBJECT_ID,EPOCH,MEAN_MOTION,ECCENTRICITY,INCLINATION,RA_OF_ASC_NODE,ARG_OF_PERICENTER,MEAN_ANOMALY,EPHEMERIS_TYPE,CLASSIFICATION_TYPE,NORAD_CAT_ID,ELEMENT_SET_NO,REV_AT_EPOCH,BSTAR,MEAN_MOTION_DOT,MEAN_MOTION_DDOT
SAUDISAT 1C (SO-50),2002-058C,2026-06-08T07:43:06.976128,14.83027779,.0075452,64.5503,156.4150,264.1037,95.1466,0,U,27607,999,26314,.14331E-3,.107E-4,0
SAUDISAT 2,2004-025F,2026-06-08T12:16:32.531232,14.56679018,.0023972,98.5506,159.2692,325.9177,34.0480,0,U,28371,999,16448,.79149E-4,.305E-5,0
SAUDISAT 3,2007-012B,2026-06-08T08:24:33.548256,14.71420570,.0013293,98.1452,109.7454,254.4641,105.5098,0,U,31118,999,2644,.54565E-4,.287E-5,0
PISAT,2016-059B,2026-06-08T11:50:20.037408,14.68969099,.0027774,97.8178,160.3198,231.5012,128.3703,0,U,41784,999,51846,.17847E-3,.1004E-4,0
FLYING LAPTOP,2017-042G,2026-06-08T12:28:36.188256,15.01089764,.0019144,97.4657,315.3891,150.0384,210.1941,0,U,42831,999,48515,.29663E-3,.3752E-4,0
SALSAT,2020-068K,2026-06-07T23:42:24.407136,15.29667638,.00089117,97.8853,161.4934,345.1768,14.9208,0,U,46495,999,31395,.28698063E-3,.8175E-4,0
